STARLINK-31843          
1 59722U 24088Q   26050.76573226  .00002209  00000+0  86712-4 0  9998
2 59722  53.1593 223.4635 0000804  99.5719 260.5373 15.30188087100930
STARLINK-31766          
1 59723U 24088R   26050.87525493  .00000237  00000+0  20131-4 0  9996
2 59723  53.1596 222.7284 0001210 103.4807 256.6329 15.30194752100956
STARLINK-31836          
1 59724U 24088S   26050.87947675  .00000852  00000+0  40890-4 0  9994
2 59724  53.1598 222.7571 0001109  82.8196 277.2931 15.30193885100950
STARLINK-31820          
1 59725U 24088T   26050.88897256  .00000939  00000+0  43806-4 0  9991
2 59725  53.1601 222.8121 0000980  94.6264 265.4848 15.30199489100953
STARLINK-31642          
1 59726U 24088U   26050.76256599  .00000656  00000+0  34257-4 0  9994
2 59726  53.1599 223.4460 0001088  97.7995 262.3129 15.30197253100931
STARLINK-31827          
1 59727U 24088V   26050.83420306 -.00004715  00000+0 -14711-3 0  9996
2 59727  53.1598 223.1806 0001210  91.4658 268.6482 15.30211631101069
STARLINK-31472          
1 59730U 24090A   26051.00001157  .00031945  00000+0  11661-2 0  9995
2 59730  42.9983 283.3839 0001344 269.9871 137.6644 15.27559606  5766
STARLINK-31817          
1 59731U 24090B   26050.97337593  .00004460  00000+0  17145-3 0  9993
2 59731  43.0020 283.2958 0001780 265.7536  94.3112 15.27586215100736
STARLINK-31833          
1 59733U 24090D   26051.07090891  .00000608  00000+0  31629-4 0  9998
2 59733  42.9985 283.1632 0000735 256.1638 103.9132 15.27569989100749
STARLINK-31849          
1 59734U 24090E   26050.99490736 -.00000043  00000+0  79731-5 0  9992
2 59734  43.0026 276.5336 0000800 281.7243  78.3519 15.27576332100816
STARLINK-31661          
1 59735U 24090F   26050.98334004  .00002530  00000+0  10142-3 0  9998
2 59735  42.9990 276.4476 0000990 264.3827  95.6911 15.27585085100817
STARLINK-31707          
1 59736U 24090G   26051.05289930  .00001459  00000+0  62525-4 0  9997
2 59736  43.0011 283.0303 0001035 284.1841  75.8896 15.27582033100748
STARLINK-31821          
1 59737U 24090H   26051.06446266  .00000799  00000+0  38542-4 0  9994
2 59737  43.0013 283.1152 0001492 258.5099 101.5585 15.27578100100743
STARLINK-31819          
1 59738U 24090J   26051.25002315  .00000967  00000+0  44635-4 0  9996
2 59738  42.9990 282.0002 0001361 275.2898  54.6852 15.27609589  5796
STARLINK-31726          
1 59739U 24090K   26051.03489492  .00000067  00000+0  11952-4 0  9995
2 59739  43.0029 282.8983 0001124 280.4118  79.6607 15.27591255100744
STARLINK-31759          
1 59740U 24090L   26051.01706987  .00000104  00000+0  13309-4 0  9996
2 59740  43.0013 283.6168 0001452 247.5285 112.5413 15.27575706100730
