[{"OBJECT_NAME":"STARLINK-31843","OBJECT_ID":"2024-088Q","EPOCH":"2026-02-19T18:22:39.267264","MEAN_MOTION":15.30188087,"ECCENTRICITY":8.049e-5,"INCLINATION":53.1593,"RA_OF_ASC_NODE":223.4635,"ARG_OF_PERICENTER":99.5719,"MEAN_ANOMALY":260.5373,"EPHEMERIS_TYPE":0,"CLASSIFICATION_TYPE":"U","NORAD_CAT_ID":59722,"ELEMENT_SET_NO":999,"REV_AT_EPOCH":10093,"BSTAR":8.6712213e-5,"MEAN_MOTION_DOT":2.209e-5,"MEAN_MOTION_DDOT":0},{"OBJECT_NAME":"STARLINK-31766","OBJECT_ID":"2024-088R","EPOCH":"2026-02-19T21:00:22.025952","MEAN_MOTION":15.30194752,"ECCENTRICITY":0.000121,"INCLINATION":53.1596,"RA_OF_ASC_NODE":222.7284,"ARG_OF_PERICENTER":103.4807,"MEAN_ANOMALY":256.6329,"EPHEMERIS_TYPE":0,"CLASSIFICATION_TYPE":"U","NORAD_CAT_ID":59723,"ELEMENT_SET_NO":999,"REV_AT_EPOCH":10095,"BSTAR":2.0131e-5,"MEAN_MOTION_DOT":2.37e-6,"MEAN_MOTION_DDOT":0},{"OBJECT_NAME":"STARLINK-31836","OBJECT_ID":"2024-088S","EPOCH":"2026-02-19T21:06:26.791200","MEAN_MOTION":15.30193885,"ECCENTRICITY":0.0001109,"INCLINATION":53.1598,"RA_OF_ASC_NODE":222.7571,"ARG_OF_PERICENTER":82.8196,"MEAN_ANOMALY":277.2931,"EPHEMERIS_TYPE":0,"CLASSIFICATION_TYPE":"U","NORAD_CAT_ID":59724,"ELEMENT_SET_NO":999,"REV_AT_EPOCH":10095,"BSTAR":4.089e-5,"MEAN_MOTION_DOT":8.52e-6,"MEAN_MOTION_DDOT":0},{"OBJECT_NAME":"STARLINK-31820","OBJECT_ID":"2024-088T","EPOCH":"2026-02-19T21:20:07.229184","MEAN_MOTION":15.30199489,"ECCENTRICITY":9.8e-5,"INCLINATION":53.1601,"RA_OF_ASC_NODE":222.8121,"ARG_OF_PERICENTER":94.6264,"MEAN_ANOMALY":265.4848,"EPHEMERIS_TYPE":0,"CLASSIFICATION_TYPE":"U","NORAD_CAT_ID":59725,"ELEMENT_SET_NO":999,"REV_AT_EPOCH":10095,"BSTAR":4.3806e-5,"MEAN_MOTION_DOT":9.39e-6,"MEAN_MOTION_DDOT":0},{"OBJECT_NAME":"STARLINK-31642","OBJECT_ID":"2024-088U","EPOCH":"2026-02-19T18:18:05.701536","MEAN_MOTION":15.30197253,"ECCENTRICITY":0.00010888,"INCLINATION":53.1599,"RA_OF_ASC_NODE":223.446,"ARG_OF_PERICENTER":97.7995,"MEAN_ANOMALY":262.3129,"EPHEMERIS_TYPE":0,"CLASSIFICATION_TYPE":"U","NORAD_CAT_ID":59726,"ELEMENT_SET_NO":999,"REV_AT_EPOCH":10093,"BSTAR":3.4257022e-5,"MEAN_MOTION_DOT":6.56e-6,"MEAN_MOTION_DDOT":0},{"OBJECT_NAME":"STARLINK-31827","OBJECT_ID":"2024-088V","EPOCH":"2026-02-19T20:01:15.144384","MEAN_MOTION":15.30211631,"ECCENTRICITY":0.00012102,"INCLINATION":53.1598,"RA_OF_ASC_NODE":223.1806,"ARG_OF_PERICENTER":91.4658,"MEAN_ANOMALY":268.6482,"EPHEMERIS_TYPE":0,"CLASSIFICATION_TYPE":"U","NORAD_CAT_ID":59727,"ELEMENT_SET_NO":999,"REV_AT_EPOCH":10106,"BSTAR":-0.00014711321,"MEAN_MOTION_DOT":-4.715e-5,"MEAN_MOTION_DDOT":0},{"OBJECT_NAME":"STARLINK-31472","OBJECT_ID":"2024-090A","EPOCH":"2026-02-20T00:00:00.999648","MEAN_MOTION":15.27559606,"ECCENTRICITY":0.00013445,"INCLINATION":42.9983,"RA_OF_ASC_NODE":283.3839,"ARG_OF_PERICENTER":269.9871,"MEAN_ANOMALY":137.6644,"EPHEMERIS_TYPE":0,"CLASSIFICATION_TYPE":"U","NORAD_CAT_ID":59730,"ELEMENT_SET_NO":999,"REV_AT_EPOCH":576,"BSTAR":0.0011660597,"MEAN_MOTION_DOT":0.00031945,"MEAN_MOTION_DDOT":0},{"OBJECT_NAME":"STARLINK-31817","OBJECT_ID":"2024-090B","EPOCH":"2026-02-19T23:21:39.680352","MEAN_MOTION":15.27586215,"ECCENTRICITY":0.00017805,"INCLINATION":43.002,"RA_OF_ASC_NODE":283.2958,"ARG_OF_PERICENTER":265.7536,"MEAN_ANOMALY":94.3112,"EPHEMERIS_TYPE":0,"CLASSIFICATION_TYPE":"U","NORAD_CAT_ID":59731,"ELEMENT_SET_NO":999,"REV_AT_EPOCH":10073,"BSTAR":0.00017145178,"MEAN_MOTION_DOT":4.46e-5,"MEAN_MOTION_DDOT":0},{"OBJECT_NAME":"STARLINK-31833","OBJECT_ID":"2024-090D","EPOCH":"2026-02-20T01:42:06.529824","MEAN_MOTION":15.27569989,"ECCENTRICITY":7.351e-5,"INCLINATION":42.9985,"RA_OF_ASC_NODE":283.1632,"ARG_OF_PERICENTER":256.1638,"MEAN_ANOMALY":103.9132,"EPHEMERIS_TYPE":0,"CLASSIFICATION_TYPE":"U","NORAD_CAT_ID":59733,"ELEMENT_SET_NO":999,"REV_AT_EPOCH":10074,"BSTAR":3.1629191e-5,"MEAN_MOTION_DOT":6.08e-6,"MEAN_MOTION_DDOT":0},{"OBJECT_NAME":"STARLINK-31849","OBJECT_ID":"2024-090E","EPOCH":"2026-02-19T23:52:39.995904","MEAN_MOTION":15.27576332,"ECCENTRICITY":8.001e-5,"INCLINATION":43.0026,"RA_OF_ASC_NODE":276.5336,"ARG_OF_PERICENTER":281.7243,"MEAN_ANOMALY":78.3519,"EPHEMERIS_TYPE":0,"CLASSIFICATION_TYPE":"U","NORAD_CAT_ID":59734,"ELEMENT_SET_NO":999,"REV_AT_EPOCH":10081,"BSTAR":7.973115e-6,"MEAN_MOTION_DOT":-4.3e-7,"MEAN_MOTION_DDOT":0},{"OBJECT_NAME":"STARLINK-31661","OBJECT_ID":"2024-090F","EPOCH":"2026-02-19T23:36:00.579456","MEAN_MOTION":15.27585085,"ECCENTRICITY":9.9e-5,"INCLINATION":42.999,"RA_OF_ASC_NODE":276.4476,"ARG_OF_PERICENTER":264.3827,"MEAN_ANOMALY":95.6911,"EPHEMERIS_TYPE":0,"CLASSIFICATION_TYPE":"U","NORAD_CAT_ID":59735,"ELEMENT_SET_NO":999,"REV_AT_EPOCH":10081,"BSTAR":0.00010141988,"MEAN_MOTION_DOT":2.53e-5,"MEAN_MOTION_DDOT":0},{"OBJECT_NAME":"STARLINK-31707","OBJECT_ID":"2024-090G","EPOCH":"2026-02-20T01:16:10.499520","MEAN_MOTION":15.27582033,"ECCENTRICITY":0.00010357,"INCLINATION":43.0011,"RA_OF_ASC_NODE":283.0303,"ARG_OF_PERICENTER":284.1841,"MEAN_ANOMALY":75.8896,"EPHEMERIS_TYPE":0,"CLASSIFICATION_TYPE":"U","NORAD_CAT_ID":59736,"ELEMENT_SET_NO":999,"REV_AT_EPOCH":10074,"BSTAR":6.2524693e-5,"MEAN_MOTION_DOT":1.459e-5,"MEAN_MOTION_DDOT":0},{"OBJECT_NAME":"STARLINK-31821","OBJECT_ID":"2024-090H","EPOCH":"2026-02-20T01:32:49.573824","MEAN_MOTION":15.275781,"ECCENTRICITY":0.00014928,"INCLINATION":43.0013,"RA_OF_ASC_NODE":283.1152,"ARG_OF_PERICENTER":258.5099,"MEAN_ANOMALY":101.5585,"EPHEMERIS_TYPE":0,"CLASSIFICATION_TYPE":"U","NORAD_CAT_ID":59737,"ELEMENT_SET_NO":999,"REV_AT_EPOCH":10074,"BSTAR":3.8542276e-5,"MEAN_MOTION_DOT":7.99e-6,"MEAN_MOTION_DDOT":0},{"OBJECT_NAME":"STARLINK-31819","OBJECT_ID":"2024-090J","EPOCH":"2026-02-20T06:00:02.000160","MEAN_MOTION":15.27609589,"ECCENTRICITY":0.00013616,"INCLINATION":42.999,"RA_OF_ASC_NODE":282.0002,"ARG_OF_PERICENTER":275.2898,"MEAN_ANOMALY":54.6852,"EPHEMERIS_TYPE":0,"CLASSIFICATION_TYPE":"U","NORAD_CAT_ID":59738,"ELEMENT_SET_NO":999,"REV_AT_EPOCH":579,"BSTAR":4.4634636e-5,"MEAN_MOTION_DOT":9.67e-6,"MEAN_MOTION_DDOT":0},{"OBJECT_NAME":"STARLINK-31726","OBJECT_ID":"2024-090K","EPOCH":"2026-02-20T00:50:14.921088","MEAN_MOTION":15.27591255,"ECCENTRICITY":0.00011241,"INCLINATION":43.0029,"RA_OF_ASC_NODE":282.8983,"ARG_OF_PERICENTER":280.4118,"MEAN_ANOMALY":79.6607,"EPHEMERIS_TYPE":0,"CLASSIFICATION_TYPE":"U","NORAD_CAT_ID":59739,"ELEMENT_SET_NO":999,"REV_AT_EPOCH":10074,"BSTAR":1.195156e-5,"MEAN_MOTION_DOT":6.7e-7,"MEAN_MOTION_DDOT":0},{"OBJECT_NAME":"STARLINK-31759","OBJECT_ID":"2024-090L","EPOCH":"2026-02-20T00:24:34.836768","MEAN_MOTION":15.27575706,"ECCENTRICITY":0.00014524,"INCLINATION":43.0013,"RA_OF_ASC_NODE":283.6168,"ARG_OF_PERICENTER":247.5285,"MEAN_ANOMALY":112.5413,"EPHEMERIS_TYPE":0,"CLASSIFICATION_TYPE":"U","NORAD_CAT_ID":59740,"ELEMENT_SET_NO":999,"REV_AT_EPOCH":10073,"BSTAR":1.3308836e-5,"MEAN_MOTION_DOT":1.04e-6,"MEAN_MOTION_DDOT":0}]
